#aV2009  6  5  0  0   .00000000      96 DD+AD WGS84 FIT  NGA
## 1534 432000.00000000   900.00000000 54987  .0000000000000
+   32     1  2  3  4  5  6  7  8  9 10 11 12 13 14 15 16 17
+         18 19 20 21 22 23 24 25 26 27 28 29 30 31 32  0  0
+          0  0  0  0  0  0  0  0  0  0  0  0  0  0  0  0  0
+          0  0  0  0  0  0  0  0  0  0  0  0  0  0  0  0  0
+          0  0  0  0  0  0  0  0  0  0  0  0  0  0  0  0  0
++         0  0  0  0  0  0  0  0  0  0  0  0  0  0  0  0  0
++         0  0  0  0  0  0  0  0  0  0  0  0  0  0  0  0  0
++         0  0  0  0  0  0  0  0  0  0  0  0  0  0  0  0  0
++         0  0  0  0  0  0  0  0  0  0  0  0  0  0  0  0  0
++         0  0  0  0  0  0  0  0  0  0  0  0  0  0  0  0  0
%c cc cc ccc ccc cccc cccc cccc cccc ccccc ccccc ccccc ccccc
%c cc cc ccc ccc cccc cccc cccc cccc ccccc ccccc ccccc ccccc
%f  0.0000000  0.000000000  0.00000000000  0.000000000000000
%f  0.0000000  0.000000000  0.00000000000  0.000000000000000
%i    0    0    0    0      0      0      0      0         0
%i    0    0    0    0      0      0      0      0         0
/*      NGA, ST. LOUIS,MO.                                  
/*   EPHEMERIS COMPUTED FROM  3 DAYS OF DATA                
/* CCCCCCCCCCCCCCCCCCCCCCCCCCCCCCCCCCCCCCCCCCCCCCCCCCCCCCCCC
/* CCCCCCCCCCCCCCCCCCCCCCCCCCCCCCCCCCCCCCCCCCCCCCCCCCCCCCCCC
*  2009  6  5 14 30   .00000000                                                 
P  1  11765.355758 -15694.643112 -17949.054048    -82.426172                    
V  1  22413.163216  -3669.370473  18087.880701       .063523                    
P  2  14959.512675   4700.843540 -21528.644322    155.583193                    
V  2  -7457.628242  26156.579472    117.713553       .009472                    
P  3 -22280.912032  -6010.285096  13140.358851    402.582767                    
V  3 -11155.970721 -13338.014612 -24083.773672       .051364                    
P  4   9245.143530  16354.756184 -18767.079119   -120.340658                    
V  4  -8827.306197  22126.505165  15404.338134      -.157485                    
P  5  19335.367220 -14738.421900 -10852.901954   -118.318328                    
V  5  13609.490764  -1564.222064  27259.659673      -.225722                    
P  6 -22061.479952 -10673.699433  10510.151079    150.116057                    
V  6  -7190.403204 -11383.110596 -27090.089572       .138410                    
P  7  -6542.870310  25607.619463   1804.898171     17.607836                    
V  7  -3261.640422   1432.388852 -31879.438588      -.007128                    
P  8   1794.567778  22033.872017  14284.708310   -206.413835                    
V  8  -8135.625162  16577.080129 -24947.827073      -.017763                    
P  9  14084.284442 -17559.486924  13365.213620     59.584088                    
V  9  -2689.208672  18005.400846  25350.337149       .020460                    
P 10  25931.630564   -580.491007  -6648.140409    -17.055864                    
V 10  -7490.592844   4052.066222 -29989.145406      -.005381                    
P 11 -12278.616041  19216.709102  13124.327685     -5.290582                    
V 11  -2720.879888 -17638.711539  23280.487451      -.014919                    
P 12  21212.889384 -12051.635061 -10277.243990   -270.919534                    
V 12  13392.585167   -540.982776  28209.691229       .056472                    
P 13    868.362158  19501.976895 -18141.070316    298.757967                    
V 13 -15245.568303 -16837.675346 -18969.612257       .008541                    
P 14 -14750.583289 -21708.537345   4590.706201    -99.506069                    
V 14   5047.278641   3099.198741  31572.627282       .058855                    
P 15  18470.636454   -258.618520  19126.787413   -298.319883                    
V 15  15801.335340  18431.264091 -14964.177299      -.033535                    
P 16 -24112.223664  -2720.247953 -11019.124846     44.710244                    
V 16  13273.769328  -4863.677339 -27458.730049      -.034174                    
P 17  14182.841913  21833.340500   5816.884010     62.756866                    
V 17  -6789.832603  -3652.518619  30448.494978       .021745                    
P 18   2181.833333 -16120.895195  21166.092205    -50.796499                    
V 18  26133.243420  -4393.215223  -6481.921018       .032488                    
P 19 -17305.859804   1241.043607  20240.794428     23.489917                    
V 19 -15247.637688 -20467.646505 -11567.418956      -.012340                    
P 20 -19529.283887  13781.872960 -11664.124065     80.728413                    
V 20 -14922.743429    886.076010  26356.324909      -.010196                    
P 21   3898.833348 -25372.373108   5614.547865     10.057979                    
V 21   5991.252279  -5369.124181 -30444.450841      -.021142                    
P 22 -10196.871910 -13412.542871  20704.239598    198.212575                    
V 22  25342.607049  -5859.707838   8676.566728      -.007350                    
P 23 -10028.928320  11260.506478 -21901.774729    390.186377                    
V 23 -18963.364733 -20161.365041  -1966.172853       .000446                    
P 24  13276.814518 -22037.037290  -6986.116197    194.423159                    
V 24   -441.940282   9404.826312 -29684.592802       .030007                    
P 25  -8892.535272  24441.024635  -5528.240262    448.004335                    
V 25   -802.149175  -7735.233151 -30796.637984       .183831                    
P 26   7851.923921 -12490.046592  21490.744036     62.988085                    
V 26  18773.151784  21558.522346   6027.618928       .009265                    
P 27  15957.813465 -10326.060500  19246.181540     54.922488                    
V 27  -4443.186866  22558.183532  16359.401798       .032667                    
P 28   7583.417461  13845.259684  21830.087588    -25.273430                    
V 28 -26072.672765   5475.660295   5389.142274      -.003223                    
P 29    732.015459 -18843.103594 -18613.240015     27.171621                    
V 29  16923.597994  16867.185103 -16274.555401       .036977                    
P 30  11233.861802 -16373.738556 -17967.212350    151.486247                    
V 30  21794.406473  -4262.697273  17963.542447       .028491                    
P 31  -9701.517930 -14455.906558 -19811.600894    -61.748067                    
V 31   8536.048236 -24178.128215  13461.335858      -.007720                    
P 32 -25181.467880   6547.104805  -4197.085000    251.524226                    
V 32  -6216.409828  -2071.618729  31397.367384      -.054576                    
EOF
